IRIDIUM 150             
1 43257U 18030J   24355.44207586 -.00000035  00000+0 -19400-4 0  9995
2 43257  86.3990 157.7659 0001682 100.1247 260.0138 14.34217192352240
IRIDIUM 143             
1 43258U 18030K   24355.00443610 -.00000035  00000+0 -19458-4 0  9991
2 43258  86.3994 158.0198 0001522 105.4261 254.7103 14.34217311352126
IRIDIUM 161             
1 43478U 18047C   24355.40722851  .00000774  00000+0  22412-3 0  9995
2 43478  86.4485 315.7112 0002228  89.0509 271.0947 14.43277895346708
IRIDIUM 152             
1 43479U 18047D   24355.39576632  .00000196  00000+0  62977-4 0  9997
2 43479  86.3959 315.5754 0002192  83.7506 276.3939 14.34217547344550
IRIDIUM 147             
1 43480U 18047E   24354.84396115  .00000218  00000+0  70740-4 0  9996
2 43480  86.3959 315.8016 0002560  82.7226 277.4261 14.34218169344464
IRIDIUM 110             
1 43481U 18047F   24354.85030449 -.00000065  00000+0 -30285-4 0  9995
2 43481  86.3957 315.8772 0002298  75.2910 284.8541 14.34217373344455
IRIDIUM 162             
1 43482U 18047G   24354.84627885  .00000033  00000+0  37615-5 0  9999
2 43482  86.4480 315.8433 0002326  78.1693 281.9768 14.43276794346615
IRIDIUM 160             
1 43569U 18061A   24355.35428880  .00000064  00000+0  15682-4 0  9995
2 43569  86.3965 284.0253 0002410  83.9219 276.2251 14.34217459335421
